STARLINK-36565          
1 67544U 26014N   26049.81899506  .00313237  00000+0  20191-2 0  9999
2 67544  97.2837 293.8350 0001495 103.2057 256.9375 15.75255289  5608
STARLINK-36583          
1 67545U 26014P   26049.84298851  .00236639  00000+0  15369-2 0  9990
2 67545  97.2842 293.8012 0001131  89.7240 270.4154 15.75293469  5607
STARLINK-36580          
1 67546U 26014Q   26049.63441204  .00209421  00000+0  13658-2 0  9998
2 67546  97.2840 293.6269 0001299  95.3813 264.7601 15.75273711  5579
STARLINK-36584          
1 67547U 26014R   26049.83335647 -.00161782  00000+0 -11013-2 0  9996
2 67547  97.2841 293.8751 0001729  85.2591  62.2305 15.75252822  5659
STARLINK-36586          
1 67548U 26014S   26049.66811391  .00194974  00000+0  99371-3 0  9994
2 67548  97.2840 293.7347 0002166  39.0915 321.0510 15.80866752  5587
STARLINK-36564          
1 67549U 26014T   26049.76958365  .00189973  00000+0  12440-2 0  9993
2 67549  97.2843 293.7459 0001281  88.0277 272.1135 15.75234829  5539
STARLINK-36563          
1 67550U 26014U   26049.89240098  .00076284  00000+0  50687-3 0  9992
2 67550  97.2839 293.8870 0001686 115.0204 245.1236 15.75229923  5614
STARLINK-36566          
1 67551U 26014V   26049.63617867  .00162945  00000+0  10710-2 0  9999
2 67551  97.2838 293.6228 0001155  46.3717 313.7644 15.75225062  5564
STARLINK-36567          
1 67552U 26014W   26049.89875552  .00099092  00000+0  65634-3 0  9993
2 67552  97.2846 293.8757 0001630 107.7883 252.3560 15.75232042  5603
STARLINK-36569          
1 67553U 26014X   26049.61853325  .00239094  00000+0  15533-2 0  9998
2 67553  97.2850 293.6441 0002205 130.0417 230.1042 15.75280736  5565
STARLINK-36395          
1 67554U 26014Y   26049.82958179  .00124036  00000+0  81769-3 0  9999
2 67554  97.2849 293.8162 0000992  77.3672 282.7704 15.75267967  5595
STARLINK-36559          
1 67555U 26014Z   26049.76746661  .00227069  00000+0  14780-2 0  9992
2 67555  97.2840 293.7468 0002311 103.7742 256.3780 15.75269612  5583
