CCSDS_OMM_VERS = 2.0
CREATION_DATE  = 
ORIGINATOR     = 

OBJECT_NAME    = STARLINK-36565
OBJECT_ID      = 2026-014N
CENTER_NAME    = EARTH
REF_FRAME      = TEME
TIME_SYSTEM    = UTC
MEAN_ELEMENT_THEORY = SGP/SGP4

EPOCH          = 2026-02-18T19:39:21.173184
MEAN_MOTION    = 15.75255289
ECCENTRICITY   = .0001495
INCLINATION    = 97.2837
RA_OF_ASC_NODE = 293.8350
ARG_OF_PERICENTER = 103.2057
MEAN_ANOMALY   = 256.9375

EPHEMERIS_TYPE = 0
CLASSIFICATION_TYPE = U
NORAD_CAT_ID   = 67544
ELEMENT_SET_NO = 999
REV_AT_EPOCH   = 560
BSTAR          = .20191E-2
MEAN_MOTION_DOT = .313237E-2
MEAN_MOTION_DDOT = 0

CCSDS_OMM_VERS = 2.0
CREATION_DATE  = 
ORIGINATOR     = 

OBJECT_NAME    = STARLINK-36583
OBJECT_ID      = 2026-014P
CENTER_NAME    = EARTH
REF_FRAME      = TEME
TIME_SYSTEM    = UTC
MEAN_ELEMENT_THEORY = SGP/SGP4

EPOCH          = 2026-02-18T20:13:54.207264
MEAN_MOTION    = 15.75293469
ECCENTRICITY   = .0001131
INCLINATION    = 97.2842
RA_OF_ASC_NODE = 293.8012
ARG_OF_PERICENTER = 89.7240
MEAN_ANOMALY   = 270.4154

EPHEMERIS_TYPE = 0
CLASSIFICATION_TYPE = U
NORAD_CAT_ID   = 67545
ELEMENT_SET_NO = 999
REV_AT_EPOCH   = 560
BSTAR          = .15369E-2
MEAN_MOTION_DOT = .236639E-2
MEAN_MOTION_DDOT = 0

CCSDS_OMM_VERS = 2.0
CREATION_DATE  = 
ORIGINATOR     = 

OBJECT_NAME    = STARLINK-36580
OBJECT_ID      = 2026-014Q
CENTER_NAME    = EARTH
REF_FRAME      = TEME
TIME_SYSTEM    = UTC
MEAN_ELEMENT_THEORY = SGP/SGP4

EPOCH          = 2026-02-18T15:13:33.200256
MEAN_MOTION    = 15.75273711
ECCENTRICITY   = .0001299
INCLINATION    = 97.2840
RA_OF_ASC_NODE = 293.6269
ARG_OF_PERICENTER = 95.3813
MEAN_ANOMALY   = 264.7601

EPHEMERIS_TYPE = 0
CLASSIFICATION_TYPE = U
NORAD_CAT_ID   = 67546
ELEMENT_SET_NO = 999
REV_AT_EPOCH   = 557
BSTAR          = .13658E-2
MEAN_MOTION_DOT = .209421E-2
MEAN_MOTION_DDOT = 0

CCSDS_OMM_VERS = 2.0
CREATION_DATE  = 
ORIGINATOR     = 

OBJECT_NAME    = STARLINK-36584
OBJECT_ID      = 2026-014R
CENTER_NAME    = EARTH
REF_FRAME      = TEME
TIME_SYSTEM    = UTC
MEAN_ELEMENT_THEORY = SGP/SGP4

EPOCH          = 2026-02-18T20:00:01.999008
MEAN_MOTION    = 15.75252822
ECCENTRICITY   = .0001729
INCLINATION    = 97.2841
RA_OF_ASC_NODE = 293.8751
ARG_OF_PERICENTER = 85.2591
MEAN_ANOMALY   = 62.2305

EPHEMERIS_TYPE = 0
CLASSIFICATION_TYPE = U
NORAD_CAT_ID   = 67547
ELEMENT_SET_NO = 999
REV_AT_EPOCH   = 565
BSTAR          = -.11013E-2
MEAN_MOTION_DOT = -.161782E-2
MEAN_MOTION_DDOT = 0

CCSDS_OMM_VERS = 2.0
CREATION_DATE  = 
ORIGINATOR     = 

OBJECT_NAME    = STARLINK-36586
OBJECT_ID      = 2026-014S
CENTER_NAME    = EARTH
REF_FRAME      = TEME
TIME_SYSTEM    = UTC
MEAN_ELEMENT_THEORY = SGP/SGP4

EPOCH          = 2026-02-18T16:02:05.041824
MEAN_MOTION    = 15.80866752
ECCENTRICITY   = .0002166
INCLINATION    = 97.2840
RA_OF_ASC_NODE = 293.7347
ARG_OF_PERICENTER = 39.0915
MEAN_ANOMALY   = 321.0510

EPHEMERIS_TYPE = 0
CLASSIFICATION_TYPE = U
NORAD_CAT_ID   = 67548
ELEMENT_SET_NO = 999
REV_AT_EPOCH   = 558
BSTAR          = .99371E-3
MEAN_MOTION_DOT = .194974E-2
MEAN_MOTION_DDOT = 0

CCSDS_OMM_VERS = 2.0
CREATION_DATE  = 
ORIGINATOR     = 

OBJECT_NAME    = STARLINK-36564
OBJECT_ID      = 2026-014T
CENTER_NAME    = EARTH
REF_FRAME      = TEME
TIME_SYSTEM    = UTC
MEAN_ELEMENT_THEORY = SGP/SGP4

EPOCH          = 2026-02-18T18:28:12.027360
MEAN_MOTION    = 15.75234829
ECCENTRICITY   = .0001281
INCLINATION    = 97.2843
RA_OF_ASC_NODE = 293.7459
ARG_OF_PERICENTER = 88.0277
MEAN_ANOMALY   = 272.1135

EPHEMERIS_TYPE = 0
CLASSIFICATION_TYPE = U
NORAD_CAT_ID   = 67549
ELEMENT_SET_NO = 999
REV_AT_EPOCH   = 553
BSTAR          = .1244E-2
MEAN_MOTION_DOT = .189973E-2
MEAN_MOTION_DDOT = 0

CCSDS_OMM_VERS = 2.0
CREATION_DATE  = 
ORIGINATOR     = 

OBJECT_NAME    = STARLINK-36563
OBJECT_ID      = 2026-014U
CENTER_NAME    = EARTH
REF_FRAME      = TEME
TIME_SYSTEM    = UTC
MEAN_ELEMENT_THEORY = SGP/SGP4

EPOCH          = 2026-02-18T21:25:03.444672
MEAN_MOTION    = 15.75229923
ECCENTRICITY   = .0001686
INCLINATION    = 97.2839
RA_OF_ASC_NODE = 293.8870
ARG_OF_PERICENTER = 115.0204
MEAN_ANOMALY   = 245.1236

EPHEMERIS_TYPE = 0
CLASSIFICATION_TYPE = U
NORAD_CAT_ID   = 67550
ELEMENT_SET_NO = 999
REV_AT_EPOCH   = 561
BSTAR          = .50687E-3
MEAN_MOTION_DOT = .76284E-3
MEAN_MOTION_DDOT = 0

CCSDS_OMM_VERS = 2.0
CREATION_DATE  = 
ORIGINATOR     = 

OBJECT_NAME    = STARLINK-36566
OBJECT_ID      = 2026-014V
CENTER_NAME    = EARTH
REF_FRAME      = TEME
TIME_SYSTEM    = UTC
MEAN_ELEMENT_THEORY = SGP/SGP4

EPOCH          = 2026-02-18T15:16:05.837088
MEAN_MOTION    = 15.75225062
ECCENTRICITY   = .0001155
INCLINATION    = 97.2838
RA_OF_ASC_NODE = 293.6228
ARG_OF_PERICENTER = 46.3717
MEAN_ANOMALY   = 313.7644

EPHEMERIS_TYPE = 0
CLASSIFICATION_TYPE = U
NORAD_CAT_ID   = 67551
ELEMENT_SET_NO = 999
REV_AT_EPOCH   = 556
BSTAR          = .1071E-2
MEAN_MOTION_DOT = .162945E-2
MEAN_MOTION_DDOT = 0

CCSDS_OMM_VERS = 2.0
CREATION_DATE  = 
ORIGINATOR     = 

OBJECT_NAME    = STARLINK-36567
OBJECT_ID      = 2026-014W
CENTER_NAME    = EARTH
REF_FRAME      = TEME
TIME_SYSTEM    = UTC
MEAN_ELEMENT_THEORY = SGP/SGP4

EPOCH          = 2026-02-18T21:34:12.476928
MEAN_MOTION    = 15.75232042
ECCENTRICITY   = .000163
INCLINATION    = 97.2846
RA_OF_ASC_NODE = 293.8757
ARG_OF_PERICENTER = 107.7883
MEAN_ANOMALY   = 252.3560

EPHEMERIS_TYPE = 0
CLASSIFICATION_TYPE = U
NORAD_CAT_ID   = 67552
ELEMENT_SET_NO = 999
REV_AT_EPOCH   = 560
BSTAR          = .65634E-3
MEAN_MOTION_DOT = .99092E-3
MEAN_MOTION_DDOT = 0

CCSDS_OMM_VERS = 2.0
CREATION_DATE  = 
ORIGINATOR     = 

OBJECT_NAME    = STARLINK-36569
OBJECT_ID      = 2026-014X
CENTER_NAME    = EARTH
REF_FRAME      = TEME
TIME_SYSTEM    = UTC
MEAN_ELEMENT_THEORY = SGP/SGP4

EPOCH          = 2026-02-18T14:50:41.272800
MEAN_MOTION    = 15.75280736
ECCENTRICITY   = .0002205
INCLINATION    = 97.2850
RA_OF_ASC_NODE = 293.6441
ARG_OF_PERICENTER = 130.0417
MEAN_ANOMALY   = 230.1042

EPHEMERIS_TYPE = 0
CLASSIFICATION_TYPE = U
NORAD_CAT_ID   = 67553
ELEMENT_SET_NO = 999
REV_AT_EPOCH   = 556
BSTAR          = .15533E-2
MEAN_MOTION_DOT = .239094E-2
MEAN_MOTION_DDOT = 0

CCSDS_OMM_VERS = 2.0
CREATION_DATE  = 
ORIGINATOR     = 

OBJECT_NAME    = STARLINK-36395
OBJECT_ID      = 2026-014Y
CENTER_NAME    = EARTH
REF_FRAME      = TEME
TIME_SYSTEM    = UTC
MEAN_ELEMENT_THEORY = SGP/SGP4

EPOCH          = 2026-02-18T19:54:35.866656
MEAN_MOTION    = 15.75267967
ECCENTRICITY   = .0000992
INCLINATION    = 97.2849
RA_OF_ASC_NODE = 293.8162
ARG_OF_PERICENTER = 77.3672
MEAN_ANOMALY   = 282.7704

EPHEMERIS_TYPE = 0
CLASSIFICATION_TYPE = U
NORAD_CAT_ID   = 67554
ELEMENT_SET_NO = 999
REV_AT_EPOCH   = 559
BSTAR          = .81769E-3
MEAN_MOTION_DOT = .124036E-2
MEAN_MOTION_DDOT = 0

CCSDS_OMM_VERS = 2.0
CREATION_DATE  = 
ORIGINATOR     = 

OBJECT_NAME    = STARLINK-36559
OBJECT_ID      = 2026-014Z
CENTER_NAME    = EARTH
REF_FRAME      = TEME
TIME_SYSTEM    = UTC
MEAN_ELEMENT_THEORY = SGP/SGP4

EPOCH          = 2026-02-18T18:25:09.115104
MEAN_MOTION    = 15.75269612
ECCENTRICITY   = .0002311
INCLINATION    = 97.2840
RA_OF_ASC_NODE = 293.7468
ARG_OF_PERICENTER = 103.7742
MEAN_ANOMALY   = 256.3780

EPHEMERIS_TYPE = 0
CLASSIFICATION_TYPE = U
NORAD_CAT_ID   = 67555
ELEMENT_SET_NO = 999
REV_AT_EPOCH   = 558
BSTAR          = .1478E-2
MEAN_MOTION_DOT = .227069E-2
MEAN_MOTION_DDOT = 0

